ALOS-2                  
1 39766U 14029A   26191.26960644  .00000233  00000+0  38053-4 0  9993
2 39766  97.9221 288.1036 0001612  93.0589 267.0807 14.79473467654990
KAZEOSAT 2              
1 40010U 14033A   26191.26706986  .00000269  00000+0  36958-4 0  9990
2 40010  97.5407  29.6590 0007037 238.8675 121.1851 14.85497193652380
HODOYOSHI-4             
1 40011U 14033B   26191.29875954  .00000066  00000+0  12846-4 0  9991
2 40011  97.5466  15.0074 0022266 226.7638 133.1721 14.88179672652244
DEIMOS-2                
1 40013U 14033D   26191.29364019  .00000218  00000+0  25642-4 0  9995
2 40013  97.5807  64.9682 0001045  82.0260 278.1079 14.93788727641178
HODOYOSHI-3             
1 40015U 14033F   26190.68419076  .00000621  00000+0  77582-4 0  9991
2 40015  97.6440 352.8224 0031315 280.9517  78.8176 14.85430452650962
SPOT 7                  
1 40053U 14034A   26191.26222488  .00000016  00000+0  12420-4 0  9996
2 40053  98.0618 253.1584 0001553  97.9251 262.2126 14.60977732640503
SKYSAT-B                
1 40072U 14037D   26190.44965851  .00000906  00000+0  10519-3 0  9991
2 40072  98.3850 150.6859 0005112 191.8576 168.2520 14.88083411649278
WORLDVIEW-3 (WV-3)      
1 40115U 14048A   26191.27852999  .00000473  00000+0  61586-4 0  9991
2 40115  97.8558 265.7920 0000912 162.2723 197.8523 14.85059620645337
GAOFEN-2                
1 40118U 14049A   26191.35186861  .00000890  00000+0  12201-3 0  9994
2 40118  98.0099 255.5361 0007981 148.4161 211.7531 14.80926384642667
YAOGAN-21               
1 40143U 14053A   26191.30168642  .00004500  00000+0  17380-3 0  9994
2 40143  97.1471 230.5479 0008357  24.3112 335.8520 15.26716695658484
YAOGAN-22               
1 40275U 14063A   26190.69679735 -.00000017  00000+0  79548-4 0  9997
2 40275 100.7754 342.3465 0006785 136.6273 223.5373 13.15531467562773
ASNARO                  
1 40298U 14070A   26191.27219206  .00004032  00000+0  19142-3 0  9991
2 40298  97.3446 266.7652 0006794 101.8464 258.3534 15.19782639647516
YAOGAN-24               
1 40310U 14072A   26191.33229566 -.00000052  00000+0  20598-6 0  9994
2 40310  98.1515 328.8673 0014223 185.2166 174.8897 14.76113050627138
CBERS 4                 
1 40336U 14079A   26191.31761052  .00000068  00000+0  38350-4 0  9997
2 40336  98.3521 247.4225 0001006  50.4924 309.6351 14.35515320607271
YAOGAN-26               
1 40362U 14088A   26191.27817034  .00018948  00000+0  35999-3 0  9994
2 40362  97.0646 190.9610 0002741   6.6626 353.4661 15.48308476641279
SMAP                    
1 40376U 15003A   26191.25931761  .00000257  00000+0  58870-4 0  9997
2 40376  98.1281 198.0274 0001559  96.1879 263.9501 14.63386594610992
KOMPSAT-3A              
1 40536U 15014A   26191.28579883  .00021989  00000+0  30401-3 0  9997
2 40536  97.6890 184.3568 0056677  92.9167 267.8574 15.55217869625404
SENTINEL-2A             
1 40697U 15028A   26191.29160774 -.00000155  00000+0 -42409-4 0  9992
2 40697  98.5675 265.8147 0001247  95.2267 264.9058 14.30813040577036
GAOFEN-8                
1 40701U 15030A   26191.31847027  .00004578  00000+0  93140-4 0  9996
2 40701  97.6908  26.0900 0009879 110.7042 249.5267 15.46807847615027
CARBONITE 1 (CBNT-1)    
1 40718U 15032D   26191.31584091  .00001160  00000+0  14644-3 0  9990
2 40718  97.6523   8.4159 0013492 213.9237 146.1116 14.83658204592778
YAOGAN-27               
1 40878U 15040A   26191.29092307 -.00000057  00000+0 -38331-4 0  9993
2 40878 100.1168 176.6719 0008371 155.9727 204.1779 13.16072066520704
GAOFEN-9 01             
1 40894U 15047A   26191.27456068  .00000628  00000+0  83117-4 0  9998
2 40894  97.6271 225.9194 0028709  65.8848 294.5364 14.82929107583615
YAOGAN-28               
1 41026U 15064A   26191.31530237  .00004407  00000+0  16510-3 0  9992
2 41026  97.3096 329.1136 0012022 108.0435 252.2116 15.27719539594211
YAOGAN-29               
1 41038U 15069A   26191.31921681  .00000866  00000+0  11291-3 0  9993
2 41038  98.0027 219.9877 0001112  22.2416 337.8846 14.83106502574059
KENT RIDGE 1            
1 41167U 15077B   26190.95148001  .00002977  00000+0  90645-4 0  9997
2 41167  14.9795  96.6661 0008227 201.1244 158.8739 15.23266301584572
GAOFEN-4                
1 41194U 15083A   26191.30267831 -.00000324  00000+0  00000+0 0  9993
2 41194   0.4134  83.8779 0004416 119.8124 299.1973  1.00269580 38761
JASON-3                 
1 41240U 16002A   26191.30373437 -.00000039  00000+0  90049-4 0  9997
2 41240  66.0417  77.2366 0008236 271.3829  88.6247 12.87628389490225
SENTINEL-3A             
1 41335U 16011A   26191.28929382  .00000044  00000+0  36238-4 0  9990
2 41335  98.6239 258.3400 0001396  91.6068 268.5272 14.26738918541355
ZIYUAN 3-02 (ZY 3-02)   
1 41556U 16033A   26191.34261319  .00003635  00000+0  16474-3 0  9993
2 41556  97.3830 266.6713 0013576 202.1198 157.9454 15.21404711561507
CARTOSAT-2C             
1 41599U 16040A   26191.31071716  .00002631  00000+0  12798-3 0  9995
2 41599  97.4473 250.9691 0009796  59.7715 300.4488 15.19240869557224
