OBJECT_NAME,OBJECT_ID,EPOCH,MEAN_MOTION,ECCENTRICITY,INCLINATION,RA_OF_ASC_NODE,ARG_OF_PERICENTER,MEAN_ANOMALY,EPHEMERIS_TYPE,CLASSIFICATION_TYPE,NORAD_CAT_ID,ELEMENT_SET_NO,REV_AT_EPOCH,BSTAR,MEAN_MOTION_DOT,MEAN_MOTION_DDOT
ALOS-2,2014-029A,2026-07-10T06:28:13.996416,14.79473467,.0001612,97.9221,288.1036,93.0589,267.0807,0,U,39766,999,65499,.38052776E-4,.233E-5,0
KAZEOSAT 2,2014-033A,2026-07-10T06:24:34.835904,14.85497193,.00070374,97.5407,29.6590,238.8675,121.1851,0,U,40010,999,65238,.36958021E-4,.269E-5,0
HODOYOSHI-4,2014-033B,2026-07-10T07:10:12.824256,14.88179672,.00222667,97.5466,15.0074,226.7638,133.1721,0,U,40011,999,65224,.12845503E-4,.66E-6,0
DEIMOS-2,2014-033D,2026-07-10T07:02:50.512416,14.93788727,.00010454,97.5807,64.9682,82.0260,278.1079,0,U,40013,999,64117,.25642246E-4,.218E-5,0
HODOYOSHI-3,2014-033F,2026-07-09T16:25:14.081664,14.85430452,.00313151,97.6440,352.8224,280.9517,78.8176,0,U,40015,999,65096,.77582473E-4,.621E-5,0
SPOT 7,2014-034A,2026-07-10T06:17:36.229632,14.60977732,.00015533,98.0618,253.1584,97.9251,262.2126,0,U,40053,999,64050,.12419976E-4,.16E-6,0
SKYSAT-B,2014-037D,2026-07-09T10:47:30.495264,14.88083411,.00051123,98.3850,150.6859,191.8576,168.2520,0,U,40072,999,64927,.10518908E-3,.906E-5,0
WORLDVIEW-3 (WV-3),2014-048A,2026-07-10T06:41:04.991136,14.85059620,.00009125,97.8558,265.7920,162.2723,197.8523,0,U,40115,999,64533,.61586286E-4,.473E-5,0
GAOFEN-2,2014-049A,2026-07-10T08:26:41.447904,14.80926384,.00079812,98.0099,255.5361,148.4161,211.7531,0,U,40118,999,64266,.12201304E-3,.89E-5,0
YAOGAN-21,2014-053A,2026-07-10T07:14:25.706688,15.26716695,.00083577,97.1471,230.5479,24.3112,335.8520,0,U,40143,999,65848,.17379935E-3,.45E-4,0
YAOGAN-22,2014-063A,2026-07-09T16:43:23.291040,13.15531467,.00067858,100.7754,342.3465,136.6273,223.5373,0,U,40275,999,56277,.79547972E-4,-.17E-6,0
ASNARO,2014-070A,2026-07-10T06:31:57.393984,15.19782639,.00067941,97.3446,266.7652,101.8464,258.3534,0,U,40298,999,64751,.1914179E-3,.4032E-4,0
YAOGAN-24,2014-072A,2026-07-10T07:58:30.345024,14.76113050,.00142233,98.1515,328.8673,185.2166,174.8897,0,U,40310,999,62713,.205984E-6,-.52E-6,0
CBERS 4,2014-079A,2026-07-10T07:37:21.548928,14.35515320,.00010061,98.3521,247.4225,50.4924,309.6351,0,U,40336,999,60727,.38350125E-4,.68E-6,0
YAOGAN-26,2014-088A,2026-07-10T06:40:33.917376,15.48308476,.00027418,97.0646,190.9610,6.6626,353.4661,0,U,40362,999,64127,.35998829E-3,.18948E-3,0
SMAP,2015-003A,2026-07-10T06:13:25.041504,14.63386594,.00015597,98.1281,198.0274,96.1879,263.9501,0,U,40376,999,61099,.58869886E-4,.257E-5,0
KOMPSAT-3A,2015-014A,2026-07-10T06:51:33.018912,15.55217869,.00566778,97.6890,184.3568,92.9167,267.8574,0,U,40536,999,62540,.30401319E-3,.21989E-3,0
SENTINEL-2A,2015-028A,2026-07-10T06:59:54.908736,14.30813040,.00012476,98.5675,265.8147,95.2267,264.9058,0,U,40697,999,57703,-.42408792E-4,-.155E-5,0
GAOFEN-8,2015-030A,2026-07-10T07:38:35.831328,15.46807847,.00098799,97.6908,26.0900,110.7042,249.5267,0,U,40701,999,61502,.93139717E-4,.4578E-4,0
CARBONITE 1 (CBNT-1),2015-032D,2026-07-10T07:34:48.654624,14.83658204,.00134928,97.6523,8.4159,213.9237,146.1116,0,U,40718,999,59277,.14644375E-3,.116E-4,0
YAOGAN-27,2015-040A,2026-07-10T06:58:55.753248,13.16072066,.00083716,100.1168,176.6719,155.9727,204.1779,0,U,40878,999,52070,-.38330555E-4,-.57E-6,0
GAOFEN-9 01,2015-047A,2026-07-10T06:35:22.042752,14.82929107,.00287094,97.6271,225.9194,65.8848,294.5364,0,U,40894,999,58361,.83116777E-4,.628E-5,0
YAOGAN-28,2015-064A,2026-07-10T07:34:02.124768,15.27719539,.00120226,97.3096,329.1136,108.0435,252.2116,0,U,41026,999,59421,.16509844E-3,.4407E-4,0
YAOGAN-29,2015-069A,2026-07-10T07:39:40.332384,14.83106502,.0001112,98.0027,219.9877,22.2416,337.8846,0,U,41038,999,57405,.11290852E-3,.866E-5,0
KENT RIDGE 1,2015-077B,2026-07-09T22:50:07.872864,15.23266301,.00082275,14.9795,96.6661,201.1244,158.8739,0,U,41167,999,58457,.90645004E-4,.2977E-4,0
GAOFEN-4,2015-083A,2026-07-10T07:15:51.405984,1.00269580,.00044166,0.4134,83.8779,119.8124,299.1973,0,U,41194,999,3876,0,-.324E-5,0
JASON-3,2016-002A,2026-07-10T07:17:22.649568,12.87628389,.00082361,66.0417,77.2366,271.3829,88.6247,0,U,41240,999,49022,.90048717E-4,-.39E-6,0
SENTINEL-3A,2016-011A,2026-07-10T06:56:34.986048,14.26738918,.00013965,98.6239,258.3400,91.6068,268.5272,0,U,41335,999,54135,.36237667E-4,.44E-6,0
ZIYUAN 3-02 (ZY 3-02),2016-033A,2026-07-10T08:13:21.779616,15.21404711,.00135762,97.3830,266.6713,202.1198,157.9454,0,U,41556,999,56150,.16474266E-3,.3635E-4,0
CARTOSAT-2C,2016-040A,2026-07-10T07:27:25.962624,15.19240869,.00097969,97.4473,250.9691,59.7715,300.4488,0,U,41599,999,55722,.12798462E-3,.2631E-4,0
